{"type": "FeatureCollection", "features": [ {"type": "Feature", "properties": {"norad_id": 29940, "name": "FENGYUN 1C DEB", "group": "fengyun-1c-debris", "lat": -10.244147410760968, "lon": 10.196661830639593, "alt_km": 818.4120949419457, "timestamp": "2025-12-25T07:00:34.318298+00:00", "meta": {"OBJECT_NAME": "FENGYUN 1C DEB", "OBJECT_ID": "1999-025JN", "EPOCH": "2025-12-24T22:52:28.181280", "MEAN_MOTION": 14.1885133, "ECCENTRICITY": 0.00745954, "INCLINATION": 98.6214, "RA_OF_ASC_NODE": 8.2959, "ARG_OF_PERICENTER": 64.9731, "MEAN_ANOMALY": 355.2188, "EPHEMERIS_TYPE": 0, "CLASSIFICATION_TYPE": "U", "NORAD_CAT_ID": 29940, "ELEMENT_SET_NO": 999, "REV_AT_EPOCH": 97661, "BSTAR": 0.00059142027, "MEAN_MOTION_DOT": 1.223e-05, "MEAN_MOTION_DDOT": 0}, "tle": {"line1": "1 29940U 99025JN  25358.95310395  .00001223  00000+0  59142-3 0  9998", "line2": "2 29940  98.6214   8.2959 0074595  64.9731 355.2188 14.18851330976614"}}, "geometry": {"type": "Point", "coordinates": [10.196661830639593, -10.244147410760968]}}, {"type": "Feature", "properties": {"norad_id": 29942, "name": "FENGYUN 1C DEB", "group": "fengyun-1c-debris", "lat": 15.191944204488584, "lon": 62.6753247735616, "alt_km": 816.6234656669494, "timestamp": "2025-12-25T07:00:34.318308+00:00", "meta": {"OBJECT_NAME": "FENGYUN 1C DEB", "OBJECT_ID": "1999-025JQ", "EPOCH": "2025-12-24T15:49:43.284000", "MEAN_MOTION": 14.30453143, "ECCENTRICITY": 0.00492758, "INCLINATION": 98.636, "RA_OF_ASC_NODE": 64.4126, "ARG_OF_PERICENTER": 240.5787, "MEAN_ANOMALY": 119.0472, "EPHEMERIS_TYPE": 0, "CLASSIFICATION_TYPE": "U", "NORAD_CAT_ID": 29942, "ELEMENT_SET_NO": 999, "REV_AT_EPOCH": 98039, "BSTAR": 0.00064898317, "MEAN_MOTION_DOT": 1.667e-05, "MEAN_MOTION_DDOT": 0}, "tle": {"line1": "1 29942U 99025JQ  25358.65952875  .00001667  00000+0  64898-3 0  9998", "line2": "2 29942  98.6360  64.4126 0049275 240.5787 119.0472 14.30453143980394"}}, "geometry": {"type": "Point", "coordinates": [62.6753247735616, 15.191944204488584]}}, {"type": "Feature", "properties": {"norad_id": 29943, "name": "FENGYUN 1C DEB", "group": "fengyun-1c-debris", "lat": 70.8250942417569, "lon": -147.1233039682465, "alt_km": 850.8127363918065, "timestamp": "2025-12-25T07:00:34.318319+00:00", "meta": {"OBJECT_NAME": "FENGYUN 1C DEB", "OBJECT_ID": "1999-025JR", "EPOCH": "2025-12-24T15:43:22.659168", "MEAN_MOTION": 14.09673348, "ECCENTRICITY": 0.00353731, "INCLINATION": 98.7268, "RA_OF_ASC_NODE": 6.0473, "ARG_OF_PERICENTER": 192.8314, "MEAN_ANOMALY": 284.1204, "EPHEMERIS_TYPE": 0, "CLASSIFICATION_TYPE": "U", "NORAD_CAT_ID": 29943, "ELEMENT_SET_NO": 999, "REV_AT_EPOCH": 97474, "BSTAR": -1.03776e-05, "MEAN_MOTION_DOT": -6.1e-07, "MEAN_MOTION_DDOT": 0}, "tle": {"line1": "1 29943U 99025JR  25358.65512337 -.00000061  00000+0 -10378-4 0  9998", "line2": "2 29943  98.7268   6.0473 0035373 192.8314 284.1204 14.09673348974745"}}, "geometry": {"type": "Point", "coordinates": [-147.1233039682465, 70.8250942417569]}}, {"type": "Feature", "properties": {"norad_id": 29944, "name": "FENGYUN 1C DEB", "group": "fengyun-1c-debris", "lat": -14.1402575987678, "lon": 112.76962611860498, "alt_km": 493.5655429247763, "timestamp": "2025-12-25T07:00:34.318329+00:00", "meta": {"OBJECT_NAME": "FENGYUN 1C DEB", "OBJECT_ID": "1999-025JS", "EPOCH": "2025-12-24T18:50:18.055680", "MEAN_MOTION": 14.87694715, "ECCENTRICITY": 0.01664994, "INCLINATION": 99.0051, "RA_OF_ASC_NODE": 294.484, "ARG_OF_PERICENTER": 193.4127, "MEAN_ANOMALY": 166.2634, "EPHEMERIS_TYPE": 0, "CLASSIFICATION_TYPE": "U", "NORAD_CAT_ID": 29944, "ELEMENT_SET_NO": 999, "REV_AT_EPOCH": 633, "BSTAR": 0.00073231546, "MEAN_MOTION_DOT": 8.548e-05, "MEAN_MOTION_DDOT": 0}, "tle": {"line1": "1 29944U 99025JS  25358.78493120  .00008548  00000+0  73232-3 0  9994", "line2": "2 29944  99.0051 294.4840 0166499 193.4127 166.2634 14.87694715  6339"}}, "geometry": {"type": "Point", "coordinates": [112.76962611860498, -14.1402575987678]}}, {"type": "Feature", "properties": {"norad_id": 29945, "name": "FENGYUN 1C DEB", "group": "fengyun-1c-debris", "lat": 49.296755973717836, "lon": -147.08043676477627, "alt_km": 891.0654545169364, "timestamp": "2025-12-25T07:00:34.318351+00:00", "meta": {"OBJECT_NAME": "FENGYUN 1C DEB", "OBJECT_ID": "1999-025JT", "EPOCH": "2025-12-24T19:15:53.451072", "MEAN_MOTION": 14.05578796, "ECCENTRICITY": 0.00303647, "INCLINATION": 98.7911, "RA_OF_ASC_NODE": 22.0817, "ARG_OF_PERICENTER": 328.3077, "MEAN_ANOMALY": 206.5856, "EPHEMERIS_TYPE": 0, "CLASSIFICATION_TYPE": "U", "NORAD_CAT_ID": 29945, "ELEMENT_SET_NO": 999, "REV_AT_EPOCH": 97147, "BSTAR": 0.00011516328, "MEAN_MOTION_DOT": 1.45e-06, "MEAN_MOTION_DDOT": 0}, "tle": {"line1": "1 29945U 99025JT  25358.80270198  .00000145  00000+0  11516-3 0  9998", "line2": "2 29945  98.7911  22.0817 0030364 328.3077 206.5856 14.05578796971474"}}, "geometry": {"type": "Point", "coordinates": [-147.08043676477627, 49.296755973717836]}}, {"type": "Feature", "properties": {"norad_id": 29946, "name": "FENGYUN 1C DEB", "group": "fengyun-1c-debris", "lat": -81.00811157142454, "lon": 68.8162763742777, "alt_km": 825.5082636681764, "timestamp": "2025-12-25T07:00:34.318364+00:00", "meta": {"OBJECT_NAME": "FENGYUN 1C DEB", "OBJECT_ID": "1999-025JU", "EPOCH": "2025-12-24T21:29:11.137920", "MEAN_MOTION": 14.08265793, "ECCENTRICITY": 0.00801583, "INCLINATION": 98.7807, "RA_OF_ASC_NODE": 350.8088, "ARG_OF_PERICENTER": 309.0615, "MEAN_ANOMALY": 112.8595, "EPHEMERIS_TYPE": 0, "CLASSIFICATION_TYPE": "U", "NORAD_CAT_ID": 29946, "ELEMENT_SET_NO": 999, "REV_AT_EPOCH": 97218, "BSTAR": 0.0002048627, "MEAN_MOTION_DOT": 3.17e-06, "MEAN_MOTION_DDOT": 0}, "tle": {"line1": "1 29946U 99025JU  25358.89526780  .00000317  00000+0  20486-3 0  9996", "line2": "2 29946  98.7807 350.8088 0080158 309.0615 112.8595 14.08265793972182"}}, "geometry": {"type": "Point", "coordinates": [68.8162763742777, -81.00811157142454]}}, {"type": "Feature", "properties": {"norad_id": 29947, "name": "FENGYUN 1C DEB", "group": "fengyun-1c-debris", "lat": 17.716211148391025, "lon": 26.630965508055912, "alt_km": 872.3068862285054, "timestamp": "2025-12-25T07:00:34.318375+00:00", "meta": {"OBJECT_NAME": "FENGYUN 1C DEB", "OBJECT_ID": "1999-025JV", "EPOCH": "2025-12-24T16:03:31.998240", "MEAN_MOTION": 14.03082263, "ECCENTRICITY": 0.00410627, "INCLINATION": 98.8368, "RA_OF_ASC_NODE": 28.8747, "ARG_OF_PERICENTER": 88.0166, "MEAN_ANOMALY": 25.6543, "EPHEMERIS_TYPE": 0, "CLASSIFICATION_TYPE": "U", "NORAD_CAT_ID": 29947, "ELEMENT_SET_NO": 999, "REV_AT_EPOCH": 96917, "BSTAR": 0.00021499776, "MEAN_MOTION_DOT": 2.94e-06, "MEAN_MOTION_DDOT": 0}, "tle": {"line1": "1 29947U 99025JV  25358.66912035  .00000294  00000+0  21500-3 0  9996", "line2": "2 29947  98.8368  28.8747 0041062  88.0166  25.6543 14.03082263969179"}}, "geometry": {"type": "Point", "coordinates": [26.630965508055912, 17.716211148391025]}}, {"type": "Feature", "properties": {"norad_id": 29948, "name": "FENGYUN 1C DEB", "group": "fengyun-1c-debris", "lat": 25.073632290816164, "lon": -19.016727107504245, "alt_km": 932.0991512703667, "timestamp": "2025-12-25T07:00:34.318441+00:00", "meta": {"OBJECT_NAME": "FENGYUN 1C DEB", "OBJECT_ID": "1999-025JW", "EPOCH": "2025-12-24T18:04:10.771680", "MEAN_MOTION": 14.06197581, "ECCENTRICITY": 0.00841542, "INCLINATION": 98.8252, "RA_OF_ASC_NODE": 344.6261, "ARG_OF_PERICENTER": 199.5918, "MEAN_ANOMALY": 338.1397, "EPHEMERIS_TYPE": 0, "CLASSIFICATION_TYPE": "U", "NORAD_CAT_ID": 29948, "ELEMENT_SET_NO": 999, "REV_AT_EPOCH": 97145, "BSTAR": -2.2148702e-05, "MEAN_MOTION_DOT": -8.1e-07, "MEAN_MOTION_DDOT": 0}, "tle": {"line1": "1 29948U 99025JW  25358.75290245 -.00000081  00000+0 -22149-4 0  9996", "line2": "2 29948  98.8252 344.6261 0084154 199.5918 338.1397 14.06197581971450"}}, "geometry": {"type": "Point", "coordinates": [-19.016727107504245, 25.073632290816164]}}, {"type": "Feature", "properties": {"norad_id": 29949, "name": "FENGYUN 1C DEB", "group": "fengyun-1c-debris", "lat": 7.275738807343223, "lon": 13.455487382622984, "alt_km": 874.6374121719055, "timestamp": "2025-12-25T07:00:34.318454+00:00", "meta": {"OBJECT_NAME": "FENGYUN 1C DEB", "OBJECT_ID": "1999-025JX", "EPOCH": "2025-12-24T22:48:20.697120", "MEAN_MOTION": 14.06828214, "ECCENTRICITY": 0.00230266, "INCLINATION": 98.7616, "RA_OF_ASC_NODE": 14.2526, "ARG_OF_PERICENTER": 269.72, "MEAN_ANOMALY": 167.2606, "EPHEMERIS_TYPE": 0, "CLASSIFICATION_TYPE": "U", "NORAD_CAT_ID": 29949, "ELEMENT_SET_NO": 999, "REV_AT_EPOCH": 97279, "BSTAR": -4.8465018e-05, "MEAN_MOTION_DOT": -1.24e-06, "MEAN_MOTION_DDOT": 0}, "tle": {"line1": "1 29949U 99025JX  25358.95023955 -.00000124  00000+0 -48465-4 0  9998", "line2": "2 29949  98.7616  14.2526 0023026 269.7200 167.2606 14.06828214972799"}}, "geometry": {"type": "Point", "coordinates": [13.455487382622984, 7.275738807343223]}}, {"type": "Feature", "properties": {"norad_id": 29950, "name": "FENGYUN 1C DEB", "group": "fengyun-1c-debris", "lat": 1.158742514313978, "lon": 29.839513064600713, "alt_km": 882.5149279621219, "timestamp": "2025-12-25T07:00:34.318465+00:00", "meta": {"OBJECT_NAME": "FENGYUN 1C DEB", "OBJECT_ID": "1999-025JY", "EPOCH": "2025-12-24T16:12:44.066592", "MEAN_MOTION": 14.10339443, "ECCENTRICITY": 0.00327727, "INCLINATION": 98.7397, "RA_OF_ASC_NODE": 29.4186, "ARG_OF_PERICENTER": 207.6071, "MEAN_ANOMALY": 264.8907, "EPHEMERIS_TYPE": 0, "CLASSIFICATION_TYPE": "U", "NORAD_CAT_ID": 29950, "ELEMENT_SET_NO": 999, "REV_AT_EPOCH": 97459, "BSTAR": 0.00014022135, "MEAN_MOTION_DOT": 2.07e-06, "MEAN_MOTION_DDOT": 0}, "tle": {"line1": "1 29950U 99025JY  25358.67551003  .00000207  00000+0  14022-3 0  9990", "line2": "2 29950  98.7397  29.4186 0032772 207.6071 264.8907 14.10339443974596"}}, "geometry": {"type": "Point", "coordinates": [29.839513064600713, 1.158742514313978]}}]}